{
"type": "FeatureCollection",
"name": "verified_swap_station_points",
"crs": { "type": "name", "properties": { "name": "urn:ogc:def:crs:OGC:1.3:CRS84" } },
"features": [
{ "type": "Feature", "properties": { "analysis_id": "PUB001", "source_station_id": "Station 002", "station_area": "Abelemkpe", "landmark": "Near Pan African TV", "latitude": 5.6131389, "longitude": -0.2205278, "coordinate_quality": "Public map coordinate", "operator": "Kofa", "source": "Ghana Energy Commission", "source_accessed_date": "2026-08-12", "inside_study_area": true }, "geometry": { "type": "Point", "coordinates": [ -0.2205278, 5.6131389 ] } },
{ "type": "Feature", "properties": { "analysis_id": "PUB002", "source_station_id": "Station 003", "station_area": "Adenta", "landmark": "Housing Down", "latitude": 5.708822, "longitude": -0.150986, "coordinate_quality": "Public map coordinate", "operator": "Kofa", "source": "Ghana Energy Commission", "source_accessed_date": "2026-08-12", "inside_study_area": true }, "geometry": { "type": "Point", "coordinates": [ -0.150986, 5.708822 ] } },
{ "type": "Feature", "properties": { "analysis_id": "PUB003", "source_station_id": "Station 004", "station_area": "Kaneshie", "landmark": "Near Vitamilk", "latitude": 5.5706667, "longitude": -0.2394444, "coordinate_quality": "Public map coordinate", "operator": "Kofa", "source": "Ghana Energy Commission", "source_accessed_date": "2026-08-12", "inside_study_area": true }, "geometry": { "type": "Point", "coordinates": [ -0.2394444, 5.5706667 ] } },
{ "type": "Feature", "properties": { "analysis_id": "PUB004", "source_station_id": "Station 005", "station_area": "Kokomlemle", "landmark": "Opposite Auto Z", "latitude": 5.577616, "longitude": -0.215024, "coordinate_quality": "Public map coordinate", "operator": "Kofa", "source": "Ghana Energy Commission", "source_accessed_date": "2026-08-12", "inside_study_area": true }, "geometry": { "type": "Point", "coordinates": [ -0.215024, 5.577616 ] } },
{ "type": "Feature", "properties": { "analysis_id": "PUB005", "source_station_id": "Station 006", "station_area": "Spintex", "landmark": "Adjacent Ecobank", "latitude": 5.62865, "longitude": -0.09, "coordinate_quality": "Landmark proxy", "operator": "Kofa", "source": "Ghana Energy Commission", "source_accessed_date": "2026-08-12", "inside_study_area": true }, "geometry": { "type": "Point", "coordinates": [ -0.09, 5.62865 ] } },
{ "type": "Feature", "properties": { "analysis_id": "PUB006", "source_station_id": "Station 007", "station_area": "Aviation", "landmark": "Aviation Social Centre", "latitude": 5.6011828, "longitude": -0.1757488, "coordinate_quality": "Public map coordinate", "operator": "Kofa", "source": "Ghana Energy Commission", "source_accessed_date": "2026-08-12", "inside_study_area": true }, "geometry": { "type": "Point", "coordinates": [ -0.1757488, 5.6011828 ] } },
{ "type": "Feature", "properties": { "analysis_id": "PUB007", "source_station_id": "Station 008", "station_area": "Osu", "landmark": "Osu", "latitude": 5.5628073, "longitude": -0.1876698, "coordinate_quality": "Public map coordinate", "operator": "Kofa", "source": "Ghana Energy Commission", "source_accessed_date": "2026-08-12", "inside_study_area": true }, "geometry": { "type": "Point", "coordinates": [ -0.1876698, 5.5628073 ] } },
{ "type": "Feature", "properties": { "analysis_id": "PUB008", "source_station_id": null, "station_area": "Haatso", "landmark": "ShaQ Express", "latitude": 5.6651767, "longitude": -0.2020037, "coordinate_quality": "Public map coordinate", "operator": "Kofa", "source": "Ghana Energy Commission", "source_accessed_date": "2026-08-12", "inside_study_area": true }, "geometry": { "type": "Point", "coordinates": [ -0.2020037, 5.6651767 ] } }
]
}
